STARLINK-1644           
1 46532U 20070A   22286.60810676  .00002337  00000+0  17580-3 0  9991
2 46532  53.0569 357.0314 0001786  50.4959 309.6187 15.06389434112143
STARLINK-1648           
1 46533U 20070B   22286.88455956  .00003293  00000+0  23994-3 0  9996
2 46533  53.0565 355.7797 0002219  44.8433 315.2735 15.06392666112206
STARLINK-1659           
1 46534U 20070C   22287.19785545  .00001869  00000+0  14435-3 0  9999
2 46534  53.0552 354.3854 0002156  39.8347 320.2800 15.06405101112253
STARLINK-1663           
1 46535U 20070D   22286.92141182  .00004719  00000+0  33546-3 0  9994
2 46535  53.0532 355.6360 0001852  51.0841 309.0313 15.06404554112205
STARLINK-1672           
1 46537U 20070F   22286.61548232  .00002070  00000+0  15787-3 0  9994
2 46537  53.0578 356.9976 0001707  45.0169 315.0958 15.06391072112144
STARLINK-1678           
1 46538U 20070G   22286.46066667  .00002463  00000+0  18426-3 0  9994
2 46538  53.0554 357.6890 0001927  47.5361 312.5790 15.06389891112116
STARLINK-1687           
1 46541U 20070K   22286.83847982  .00001895  00000+0  14613-3 0  9998
2 46541  53.0534 336.0068 0001826  53.8767 306.2391 15.06394674112453
STARLINK-1692           
1 46542U 20070L   22286.50857789  .00002301  00000+0  17336-3 0  9997
2 46542  53.0572 357.4846 0001787  43.0815 317.0314 15.06385283112123
STARLINK-1693           
1 46543U 20070M   22286.89192134  .00004984  00000+0  35318-3 0  9995
2 46543  53.0563 355.7583 0001747  48.1385 311.9753 15.06406741112209
STARLINK-1694           
1 46544U 20070N   22286.42335415  .00001733  00000+0  13527-3 0  9993
2 46544  53.0567 342.8712 0001705  53.7677 306.3470 15.06381531112321
STARLINK-1696           
1 46545U 20070P   22286.59704989  .00001743  00000+0  13595-3 0  9994
2 46545  53.0555 357.0792 0001855  50.6750 309.4403 15.06386706112137
STARLINK-1697           
1 46546U 20070Q   22286.44960744  .00002926  00000+0  21530-3 0  9994
2 46546  53.0574 357.7473 0001979  45.3448 314.7702 15.06386741112112
STARLINK-1698           
1 46547U 20070R   22287.20796901  .00005209  00000+0  36860-3 0  9991
2 46547  53.0584 354.3345 0002306  33.8888 326.2248 15.06373607112255
STARLINK-1699           
1 46548U 20070S   22286.88823513  .00011681  00000+0  80140-3 0  9996
2 46548  53.0557 355.7782 0001840  43.2152 316.8981 15.06417982112206
STARLINK-1700           
1 46549U 20070T   22287.18310163  .00004656  00000+0  33125-3 0  9998
2 46549  53.0553 354.4537 0001173  82.4084 277.7039 15.06399025111930
STARLINK-1701           
1 46550U 20070U   22286.50490033  .00003264  00000+0  23797-3 0  9998
2 46550  53.0560 357.4981 0001988  37.2858 322.8269 15.06389821112141
STARLINK-1649           
1 46552U 20070W   22286.60104088  .00049680  00000+0  77872-3 0  9998
2 46552  53.0514 325.8276 0004330  45.4680 314.6682 15.53228875112529
STARLINK-1664           
1 46553U 20070X   22286.62561330  .00004747  00000+0  33730-3 0  9998
2 46553  53.0553 326.9696 0001941  48.8909 311.2247 15.06405267112561
STARLINK-1671           
1 46554U 20070Y   22286.94305965  .00004670  00000+0  33216-3 0  9998
2 46554  53.0556 340.5198 0001844  50.0311 310.0839 15.06408895112416
STARLINK-1676           
1 46556U 20070AA  22286.47173282  .00002646  00000+0  19651-3 0  9991
2 46556  53.0558 357.6331 0001950  52.7548 307.3619 15.06390905112122
STARLINK-1679           
1 46557U 20070AB  22287.11261894  .00003172  00000+0  23173-3 0  9990
2 46557  53.0542 339.7734 0001939  43.5257 316.5885 15.06398693112440
STARLINK-1680           
1 46558U 20070AC  22287.18633343  .00000122  00000+0  27088-4 0  9992
2 46558  53.0560 339.4403 0001563  52.8090 307.3042 15.06400796112454
STARLINK-1681           
1 46559U 20070AD  22286.57675520  .00006409  00000+0  44872-3 0  9991
2 46559  53.0537 327.1694 0002213  47.1806 312.9369 15.06402112112559
STARLINK-1706           
1 46560U 20070AE  22287.13473249  .00002846  00000+0  20987-3 0  9992
2 46560  53.0555 339.6713 0001815  40.0165 320.0958 15.06398487112449
STARLINK-1709           
1 46561U 20070AF  22286.55511098 -.00000171  00000+0  74124-5 0  9997
2 46561  53.0551 342.2846 0002189  45.0942 315.0225 15.06378213112341
STARLINK-1714           
1 46562U 20070AG  22286.62005965  .00006739  00000+0  47078-3 0  9998
2 46562  53.0540 336.9566 0001922  45.6994 314.4152 15.06407194112428
STARLINK-1730           
1 46563U 20070AH  22286.86796151  .00004268  00000+0  30528-3 0  9996
2 46563  53.0548 335.8786 0002200  40.6557 319.4596 15.06400004112463
STARLINK-1733           
1 46564U 20070AJ  22286.84953808  .00005740  00000+0  40390-3 0  9993
2 46564  53.0560 335.9355 0002072  52.6944 307.4234 15.06402137112466
STARLINK-1735           
1 46565U 20070AK  22287.29182943 -.00000722  00000+0 -29571-4 0  9994
2 46565  53.0562 333.9689 0002228  37.1389 322.9754 15.06397331112223
STARLINK-1740           
1 46566U 20070AL  22286.61363222  .00005620  00000+0  39588-3 0  9999
2 46566  53.0561 337.0072 0002038  46.1301 313.9856 15.06403090112422
STARLINK-1741           
1 46567U 20070AM  22286.84216574  .00002606  00000+0  19389-3 0  9990
2 46567  53.0568 335.9740 0001836  55.0147 305.1014 15.06384794112463
STARLINK-1747           
1 46569U 20070AP  22286.98959608  .00010188  00000+0  70150-3 0  9996
2 46569  53.0546 335.3187 0002253  41.4669 318.6491 15.06419331112185
STARLINK-1748           
1 46570U 20070AQ  22286.96305868  .00026853  00000+0  15925-2 0  9993
2 46570  53.0561 333.3710 0003812  62.8106 297.3273 15.11190542112513
STARLINK-1531           
1 46572U 20070AS  22286.89466504  .00006602  00000+0  46164-3 0  9992
2 46572  53.0550 355.7251 0001900  44.4557 315.6584 15.06405561112202
STARLINK-1650           
1 46573U 20070AT  22287.13747159  .00001717  00000+0  13415-3 0  9994
2 46573  53.0563 339.6444 0002110  42.5655 317.5497 15.06397442112442
STARLINK-1660           
1 46574U 20070AU  22286.65924726  .00002447  00000+0  18312-3 0  9990
2 46574  53.0543 341.8121 0001635  50.1740 309.9393 15.06398953112368
STARLINK-1675           
1 46575U 20070AV  22287.24576674 -.00000429  00000+0 -98819-5 0  9994
2 46575  53.0547 314.1814 0002047  43.0205 317.0944 15.06386943112807
STARLINK-1677           
1 46576U 20070AW  22286.85092054  .00002904  00000+0  21386-3 0  9997
2 46576  53.0567 340.9393 0002278  40.2289 319.8868 15.06390093112396
STARLINK-1682           
1 46577U 20070AX  22286.94674019  .00004641  00000+0  33024-3 0  9997
2 46577  53.0548 340.5015 0001875  51.7631 308.3526 15.06401369112408
STARLINK-1683           
1 46578U 20070AY  22286.39709160  .00002153  00000+0  16340-3 0  9991
2 46578  53.0557 328.0386 0001798  42.2329 317.8798 15.06393484112532
STARLINK-1705           
1 46579U 20070AZ  22286.53392375  .00003316  00000+0  24143-3 0  9996
2 46579  53.0567 342.3674 0001473  61.9857 298.1281 15.06391451112346
STARLINK-1708           
1 46580U 20070BA  22286.84354368  .00003836  00000+0  27635-3 0  9998
2 46580  53.0566 340.9767 0001899  44.7278 315.3864 15.06391924112403
STARLINK-1712           
1 46581U 20070BB  22286.41091361  .00006315  00000+0  44246-3 0  9995
2 46581  53.0537 337.9241 0002432  37.1701 322.9456 15.06402190112393
STARLINK-1728           
1 46582U 20070BC  22286.86058686  .00003550  00000+0  25711-3 0  9992
2 46582  53.0555 335.9085 0001681  57.5065 302.6086 15.06399265112462
STARLINK-1729           
1 46583U 20070BD  22287.24208661  .00001425  00000+0  11454-3 0  9994
2 46583  53.0563 354.1906 0001648  58.1563 301.9587 15.06396123112255
STARLINK-1732           
1 46584U 20070BE  22286.86427031  .00002696  00000+0  19985-3 0  9994
2 46584  53.0562 335.8881 0001991  47.1325 312.9831 15.06395916112150
STARLINK-1736           
1 46585U 20070BF  22287.27983824  .00000987  00000+0  85152-4 0  9999
2 46585  53.0565 334.0137 0002175  48.0242 312.0932 15.06407494112228
STARLINK-1737           
1 46586U 20070BG  22286.53991543  .00003877  00000+0  27909-3 0  9991
2 46586  53.0553 337.3313 0002262  40.1629 319.9527 15.06393919112410
STARLINK-1746           
1 46588U 20070BJ  22287.18495433  .00003533  00000+0  25595-3 0  9990
2 46588  53.0555 334.4505 0002459  32.7199 327.3942 15.06403600112527
STARLINK-1749           
1 46589U 20070BK  22286.84585942  .00003138  00000+0  22951-3 0  9992
2 46589  53.0544 335.9720 0002189  38.9515 321.1632 15.06393413112462
STARLINK-1755           
1 46591U 20070BM  22286.83479402 -.00000027  00000+0  17086-4 0  9996
2 46591  53.0569 336.0144 0001868  48.8790 311.2360 15.06395998111515
